[{"OBJECT_NAME":"SEMI-1N","OBJECT_ID":"2025-248E","EPOCH":"2026-03-09T00:40:10.078752","MEAN_MOTION":15.21438314,"ECCENTRICITY":0.00099016,"INCLINATION":45.4059,"RA_OF_ASC_NODE":296.6023,"ARG_OF_PERICENTER":200.0771,"MEAN_ANOMALY":159.9728,"EPHEMERIS_TYPE":0,"CLASSIFICATION_TYPE":"U","NORAD_CAT_ID":66297,"ELEMENT_SET_NO":999,"REV_AT_EPOCH":1929,"BSTAR":0.00035121654,"MEAN_MOTION_DOT":7.76e-5,"MEAN_MOTION_DDOT":0},{"OBJECT_NAME":"OBJECT AK","OBJECT_ID":"2025-313AK","EPOCH":"2026-03-09T22:15:06.103872","MEAN_MOTION":15.21477682,"ECCENTRICITY":0.00118476,"INCLINATION":97.3947,"RA_OF_ASC_NODE":145.1584,"ARG_OF_PERICENTER":356.5328,"MEAN_ANOMALY":3.5824,"EPHEMERIS_TYPE":0,"CLASSIFICATION_TYPE":"U","NORAD_CAT_ID":67281,"ELEMENT_SET_NO":999,"REV_AT_EPOCH":1085,"BSTAR":0.00031140912,"MEAN_MOTION_DOT":6.947e-5,"MEAN_MOTION_DDOT":0}]
